{
"type": "FeatureCollection",
"name": "area_a_boundary",
"crs": { "type": "name", "properties": { "name": "urn:ogc:def:crs:OGC:1.3:CRS84" } },
"features": [
{ "type": "Feature", "properties": { "area": "A" }, "geometry": { "type": "Polygon", "coordinates": [ [ [ -123.570244105882111, 48.678784231006048 ], [ -123.570243346984356, 48.678784047639823 ], [ -123.56997733335011, 48.679145397354617 ], [ -123.569129547498818, 48.679165618212444 ], [ -123.568377294749752, 48.679183554102558 ], [ -123.568227888773706, 48.679185403189742 ], [ -123.567477442976767, 48.679194686223582 ], [ -123.566537800385433, 48.67920630281705 ], [ -123.565275098695153, 48.679223319932014 ], [ -123.563771324446193, 48.679244317127186 ], [ -123.562848216905238, 48.67925603235232 ], [ -123.561143008121348, 48.679278661283078 ], [ -123.561006395643531, 48.679280472723221 ], [ -123.554153850290035, 48.679289126587278 ], [ -123.550770494474563, 48.67930751626055 ], [ -123.550736533524955, 48.67930765806647 ], [ -123.550715219687348, 48.679307746474791 ], [ -123.547319901651079, 48.679299817691472 ], [ -123.532604813537262, 48.679249621132811 ], [ -123.507305165972625, 48.679141556169391 ], [ -123.508463866169365, 48.674728326162032 ], [ -123.506508834307283, 48.665344928652544 ], [ -123.505462915828403, 48.660320651634009 ], [ -123.50344860550581, 48.649727448008761 ], [ -123.502762049148174, 48.6456236762833 ], [ -123.502479213254347, 48.640982860992011 ], [ -123.502450317663133, 48.639525598756002 ], [ -123.502333298266933, 48.633593095969943 ], [ -123.502213748487662, 48.625820864235109 ], [ -123.502115351653828, 48.619406966337749 ], [ -123.50210155069739, 48.609250241549347 ], [ -123.502107377040872, 48.605732674089239 ], [ -123.502116946960925, 48.599727613501123 ], [ -123.502172280056257, 48.589359141209712 ], [ -123.502201941348574, 48.584226617254238 ], [ -123.502237347397042, 48.582283259220738 ], [ -123.502230763002444, 48.58033558541765 ], [ -123.502280623692556, 48.577542009633163 ], [ -123.502360791024117, 48.576268680957277 ], [ -123.502556480286486, 48.57446856199941 ], [ -123.503029751033679, 48.571655143368659 ], [ -123.502814799731524, 48.571552624394926 ], [ -123.503151181645435, 48.570102745358199 ], [ -123.503551216340512, 48.56892247586233 ], [ -123.503905491176084, 48.568084267626347 ], [ -123.504967641673545, 48.566145400650633 ], [ -123.505994024453571, 48.564705978184058 ], [ -123.506915476267977, 48.563622365721066 ], [ -123.507521198410686, 48.562989952371183 ], [ -123.508501762101901, 48.562063500501957 ], [ -123.509440874072709, 48.561272167755092 ], [ -123.510858862645492, 48.560217810349677 ], [ -123.512188921599531, 48.559352752409296 ], [ -123.513803022253583, 48.558436927494299 ], [ -123.51552960031492, 48.557592546878439 ], [ -123.516951942338693, 48.55698791364614 ], [ -123.519242681481529, 48.556158936394091 ], [ -123.521012176820193, 48.555633652944557 ], [ -123.523468793760088, 48.555051241320896 ], [ -123.524893808766876, 48.554761367367412 ], [ -123.527867250079424, 48.554163009918824 ], [ -123.534884668556487, 48.552745182032311 ], [ -123.53885505435909, 48.551939486983436 ], [ -123.541862856599792, 48.551219156568166 ], [ -123.544698993530858, 48.5501756883396 ], [ -123.545686082708585, 48.549626733545423 ], [ -123.546007712879288, 48.549215874598175 ], [ -123.546879423571511, 48.548100684023332 ], [ -123.547826960836062, 48.546521813437046 ], [ -123.548251504716305, 48.545057879861261 ], [ -123.548456766808329, 48.54359948923549 ], [ -123.548540732158472, 48.542240635178914 ], [ -123.548547852576078, 48.541880744790838 ], [ -123.548563378116114, 48.541475834427914 ], [ -123.548517286942513, 48.541089209446 ], [ -123.548434096692318, 48.540756740267867 ], [ -123.548429121071877, 48.540374415650916 ], [ -123.548365939299799, 48.539933894471083 ], [ -123.548285554291738, 48.539389996668369 ], [ -123.548188547647385, 48.539071085909171 ], [ -123.548122894728962, 48.538832993165016 ], [ -123.548046515681207, 48.538581457884213 ], [ -123.547891505027508, 48.538222339981296 ], [ -123.547801357742429, 48.537871911457366 ], [ -123.547721986019837, 48.537656375654592 ], [ -123.547621999047706, 48.537413948772176 ], [ -123.547560008015935, 48.537279296748707 ], [ -123.547456558234174, 48.537068372726139 ], [ -123.54739447109435, 48.536924725634762 ], [ -123.547311905761362, 48.536727199177271 ], [ -123.54724246623698, 48.536529606810149 ], [ -123.547177172605728, 48.536363485682017 ], [ -123.547097274289328, 48.536098470047797 ], [ -123.555681833268153, 48.536083429233081 ], [ -123.555689928532658, 48.536083414495828 ], [ -123.559982682887693, 48.536067121501517 ], [ -123.560693443427382, 48.536084937751326 ], [ -123.56232182912963, 48.536085253395285 ], [ -123.562774249747363, 48.536085276567107 ], [ -123.563213812402651, 48.536085356260216 ], [ -123.563376165224611, 48.536085385058556 ], [ -123.567830856876668, 48.536061049919418 ], [ -123.567990863943749, 48.536061597475303 ], [ -123.568235314282504, 48.53606243528553 ], [ -123.568472450353426, 48.536063335496301 ], [ -123.568640588963575, 48.536062154232809 ], [ -123.57191439349495, 48.536060141083979 ], [ -123.579274727799486, 48.536055276310684 ], [ -123.579656427216079, 48.546417574971017 ], [ -123.579625553963922, 48.548215828487919 ], [ -123.579507823173302, 48.55096059871741 ], [ -123.579373186369267, 48.554051236046256 ], [ -123.579369700291934, 48.554131279914486 ], [ -123.579304345629552, 48.555594718371438 ], [ -123.579342205578726, 48.558160158235012 ], [ -123.579339961106101, 48.558160140752506 ], [ -123.576363804444739, 48.558135929654597 ], [ -123.576361848573683, 48.558135913464739 ], [ -123.576600608997964, 48.558329883996812 ], [ -123.576846821891451, 48.558519705377869 ], [ -123.577100323750301, 48.558705251489435 ], [ -123.577360946222285, 48.558886399052277 ], [ -123.577628516218567, 48.559063027708341 ], [ -123.578077636872791, 48.558793139920837 ], [ -123.578087964997223, 48.558786933603564 ], [ -123.57829444035066, 48.558933536581584 ], [ -123.578507894383392, 48.559075667641075 ], [ -123.57872810744405, 48.55921318048685 ], [ -123.578954852918827, 48.559345933576125 ], [ -123.579187897464308, 48.559473790264214 ], [ -123.579427001248021, 48.559596618945449 ], [ -123.579671918195089, 48.55971429318874 ], [ -123.57992239624167, 48.55982669186772 ], [ -123.580178177594348, 48.559933699285644 ], [ -123.580438998995845, 48.560035205294525 ], [ -123.58070459199584, 48.560131105408672 ], [ -123.581951767552241, 48.560581678886898 ], [ -123.58384573527438, 48.561247644540437 ], [ -123.583842921006266, 48.561680629542423 ], [ -123.58384088942239, 48.561993172535814 ], [ -123.583839738848084, 48.562169945103449 ], [ -123.58383485930554, 48.56291902937766 ], [ -123.583834715571697, 48.5629436278791 ], [ -123.583833515710083, 48.563131423212042 ], [ -123.583824092646509, 48.564581289853578 ], [ -123.583800251259731, 48.568233188537938 ], [ -123.581179581901992, 48.568246446096012 ], [ -123.581330085051917, 48.574502644304864 ], [ -123.576644605528969, 48.5744767262754 ], [ -123.576594343666912, 48.575421576536883 ], [ -123.564350537135255, 48.575191684025832 ], [ -123.56420799184248, 48.582546491390822 ], [ -123.564514609678938, 48.582548065358445 ], [ -123.56456774602627, 48.593671750906822 ], [ -123.564600361582961, 48.600562759198269 ], [ -123.551794457257373, 48.600602340575236 ], [ -123.548016671145149, 48.600579896684202 ], [ -123.548067345069668, 48.606517206932288 ], [ -123.548098472782868, 48.610138064426494 ], [ -123.55481082019422, 48.61009242694891 ], [ -123.558943128555597, 48.610058951740228 ], [ -123.559013077835161, 48.619198827445899 ], [ -123.561985575006617, 48.619166369525061 ], [ -123.571488585406073, 48.619065626680168 ], [ -123.57880295884182, 48.618984119860421 ], [ -123.588911730435598, 48.618874395194844 ], [ -123.588850933240593, 48.625567931112023 ], [ -123.588851960303046, 48.626260662484086 ], [ -123.588857149284223, 48.629757137612941 ], [ -123.588729258065456, 48.631588873995625 ], [ -123.588482296595373, 48.635110545630482 ], [ -123.588322156447134, 48.637382851273337 ], [ -123.588412089425447, 48.639802217635577 ], [ -123.588384174183332, 48.640996924294214 ], [ -123.588545494336358, 48.643391062194688 ], [ -123.58863030404882, 48.644575863064588 ], [ -123.588557183023937, 48.645652730515977 ], [ -123.588566328342296, 48.645982706912299 ], [ -123.588583845326269, 48.646614760105813 ], [ -123.588604637023352, 48.647364949434809 ], [ -123.588637509035394, 48.647587814191603 ], [ -123.588652723092395, 48.647937293840037 ], [ -123.588665063118071, 48.648220754977643 ], [ -123.58867285563943, 48.648372699340626 ], [ -123.588691438601373, 48.648735026400651 ], [ -123.588704086116081, 48.648988648060836 ], [ -123.588708896424066, 48.649085092709967 ], [ -123.58871001893138, 48.64910756945541 ], [ -123.58873360544527, 48.649580451684777 ], [ -123.588734755152174, 48.649603514818601 ], [ -123.588737732495019, 48.649663215606473 ], [ -123.58874696418701, 48.650034468887768 ], [ -123.588745894419247, 48.650250597720564 ], [ -123.588744569351718, 48.650771656881503 ], [ -123.588744151947097, 48.650949347165771 ], [ -123.58874231918999, 48.651730013608443 ], [ -123.588743938944035, 48.65201595751536 ], [ -123.588746330871786, 48.652437963530367 ], [ -123.588756463057479, 48.6542259419722 ], [ -123.588771697591341, 48.655935144675524 ], [ -123.588915862687855, 48.66033355500511 ], [ -123.588943255960146, 48.660900177008976 ], [ -123.588945651397594, 48.661579378562294 ], [ -123.588952706865385, 48.662330526530248 ], [ -123.588955036219943, 48.664606553679214 ], [ -123.588952404953133, 48.667076025117659 ], [ -123.588945454654635, 48.669320611166562 ], [ -123.588932536017481, 48.671781135329731 ], [ -123.57927621314478, 48.671848090732574 ], [ -123.574868519526802, 48.67184767932342 ], [ -123.574910102121521, 48.675502501751367 ], [ -123.573824793253948, 48.675509665460268 ], [ -123.573824738309725, 48.675509833947245 ], [ -123.573809365780249, 48.67555916988249 ], [ -123.572624608853118, 48.679361673399661 ], [ -123.570244105882111, 48.678784231006048 ] ] ] } }
]
}
